{
  "type": "FeatureCollection",
  "features": [
    {
      "type": "Feature",
      "properties": {
        "norad_id": 58701,
        "name": "TIANMU-1 16",
        "group": "weather",
        "lat": 8.199108694544789,
        "lon": -179.92529964026454,
        "alt_km": 496.0438148802914,
        "timestamp": "2025-12-26T08:37:54.213791+00:00",
        "meta_object_name": "TIANMU-1 16",
        "meta_object_id": "2024-004B",
        "meta_epoch": "2025-12-26T03:52:11.993088",
        "meta_mean_motion": 15.24612276,
        "meta_eccentricity": 0.000445,
        "meta_inclination": 97.457,
        "meta_ra_of_asc_node": 180.9586,
        "meta_arg_of_pericenter": 234.681,
        "meta_mean_anomaly": 125.4011,
        "meta_ephemeris_type": 0,
        "meta_classification_type": "U",
        "meta_norad_cat_id": 58701,
        "meta_element_set_no": 999,
        "meta_rev_at_epoch": 10939,
        "meta_bstar": 0.00028427,
        "meta_mean_motion_dot": 6.942e-05,
        "meta_mean_motion_ddot": 0,
        "tle_line1": "1 58701U 24004B   25360.16124992  .00006942  00000+0  28427-3 0  9997",
        "tle_line2": "2 58701  97.4570 180.9586 0004450 234.6810 125.4011 15.24612276109391"
      },
      "geometry": {
        "type": "Point",
        "coordinates": [
          -179.92529964026454,
          8.199108694544789
        ]
      }
    },
    {
      "type": "Feature",
      "properties": {
        "norad_id": 58702,
        "name": "TIANMU-1 17",
        "group": "weather",
        "lat": 81.03780356610372,
        "lon": 57.76539366098542,
        "alt_km": 486.29044847037767,
        "timestamp": "2025-12-26T08:37:54.213801+00:00",
        "meta_object_name": "TIANMU-1 17",
        "meta_object_id": "2024-004C",
        "meta_epoch": "2025-12-26T05:03:58.449888",
        "meta_mean_motion": 15.24655961,
        "meta_eccentricity": 0.0003617,
        "meta_inclination": 97.4604,
        "meta_ra_of_asc_node": 181.4252,
        "meta_arg_of_pericenter": 235.206,
        "meta_mean_anomaly": 124.8838,
        "meta_ephemeris_type": 0,
        "meta_classification_type": "U",
        "meta_norad_cat_id": 58702,
        "meta_element_set_no": 999,
        "meta_rev_at_epoch": 10939,
        "meta_bstar": 0.00029433,
        "meta_mean_motion_dot": 7.199e-05,
        "meta_mean_motion_ddot": 0,
        "tle_line1": "1 58702U 24004C   25360.21109317  .00007199  00000+0  29433-3 0  9991",
        "tle_line2": "2 58702  97.4604 181.4252 0003617 235.2060 124.8838 15.24655961109392"
      },
      "geometry": {
        "type": "Point",
        "coordinates": [
          57.76539366098542,
          81.03780356610372
        ]
      }
    },
    {
      "type": "Feature",
      "properties": {
        "norad_id": 58703,
        "name": "TIANMU-1 18",
        "group": "weather",
        "lat": -5.819484634754376,
        "lon": 1.0059372604903507,
        "alt_km": 494.2332886367085,
        "timestamp": "2025-12-26T08:37:54.213812+00:00",
        "meta_object_name": "TIANMU-1 18",
        "meta_object_id": "2024-004D",
        "meta_epoch": "2025-12-26T04:40:08.491872",
        "meta_mean_motion": 15.24638197,
        "meta_eccentricity": 0.0003009,
        "meta_inclination": 97.4621,
        "meta_ra_of_asc_node": 181.6069,
        "meta_arg_of_pericenter": 231.7291,
        "meta_mean_anomaly": 128.3676,
        "meta_ephemeris_type": 0,
        "meta_classification_type": "U",
        "meta_norad_cat_id": 58703,
        "meta_element_set_no": 999,
        "meta_rev_at_epoch": 10939,
        "meta_bstar": 0.00030174,
        "meta_mean_motion_dot": 7.378e-05,
        "meta_mean_motion_ddot": 0,
        "tle_line1": "1 58703U 24004D   25360.19454273  .00007378  00000+0  30174-3 0  9996",
        "tle_line2": "2 58703  97.4621 181.6069 0003009 231.7291 128.3676 15.24638197109393"
      },
      "geometry": {
        "type": "Point",
        "coordinates": [
          1.0059372604903507,
          -5.819484634754376
        ]
      }
    },
    {
      "type": "Feature",
      "properties": {
        "norad_id": 58990,
        "name": "INSAT-3DS",
        "group": "weather",
        "lat": -0.044375801802413205,
        "lon": -53.30960967823016,
        "alt_km": 35781.545538439386,
        "timestamp": "2025-12-26T08:37:54.213823+00:00",
        "meta_object_name": "INSAT-3DS",
        "meta_object_id": "2024-033A",
        "meta_epoch": "2025-12-25T23:43:34.512960",
        "meta_mean_motion": 1.00271049,
        "meta_eccentricity": 0.0001311,
        "meta_inclination": 0.0621,
        "meta_ra_of_asc_node": 99.2069,
        "meta_arg_of_pericenter": 176.6391,
        "meta_mean_anomaly": 256.8968,
        "meta_ephemeris_type": 0,
        "meta_classification_type": "U",
        "meta_norad_cat_id": 58990,
        "meta_element_set_no": 999,
        "meta_rev_at_epoch": 4533,
        "meta_bstar": 0,
        "meta_mean_motion_dot": -1.34e-06,
        "meta_mean_motion_ddot": 0,
        "tle_line1": "1 58990U 24033A   25359.98859390 -.00000134  00000+0  00000+0 0  9995",
        "tle_line2": "2 58990   0.0621  99.2069 0001311 176.6391 256.8968  1.00271049 45339"
      },
      "geometry": {
        "type": "Point",
        "coordinates": [
          -53.30960967823016,
          -0.044375801802413205
        ]
      }
    },
    {
      "type": "Feature",
      "properties": {
        "norad_id": 59051,
        "name": "METEOR-M2 4",
        "group": "weather",
        "lat": 39.88622176314286,
        "lon": -50.27738256170481,
        "alt_km": 813.5558142286127,
        "timestamp": "2025-12-26T08:37:54.213834+00:00",
        "meta_object_name": "METEOR-M2 4",
        "meta_object_id": "2024-039A",
        "meta_epoch": "2025-12-26T05:03:57.070944",
        "meta_mean_motion": 14.22403315,
        "meta_eccentricity": 0.0006349,
        "meta_inclination": 98.6786,
        "meta_ra_of_asc_node": 316.9099,
        "meta_arg_of_pericenter": 317.7793,
        "meta_mean_anomaly": 42.2896,
        "meta_ephemeris_type": 0,
        "meta_classification_type": "U",
        "meta_norad_cat_id": 59051,
        "meta_element_set_no": 999,
        "meta_rev_at_epoch": 9467,
        "meta_bstar": 3.9335e-05,
        "meta_mean_motion_dot": 4.4e-07,
        "meta_mean_motion_ddot": 0,
        "tle_line1": "1 59051U 24039A   25360.21107721  .00000044  00000+0  39335-4 0  9999",
        "tle_line2": "2 59051  98.6786 316.9099 0006349 317.7793  42.2896 14.22403315 94674"
      },
      "geometry": {
        "type": "Point",
        "coordinates": [
          -50.27738256170481,
          39.88622176314286
        ]
      }
    },
    {
      "type": "Feature",
      "properties": {
        "norad_id": 60133,
        "name": "GOES 19",
        "group": "weather",
        "lat": 0.0028056436744067453,
        "lon": 149.38552908618954,
        "alt_km": 35790.90919808212,
        "timestamp": "2025-12-26T08:37:54.213846+00:00",
        "meta_object_name": "GOES 19",
        "meta_object_id": "2024-119A",
        "meta_epoch": "2025-12-26T02:31:04.440000",
        "meta_mean_motion": 1.00270613,
        "meta_eccentricity": 0.0001081,
        "meta_inclination": 0.0424,
        "meta_ra_of_asc_node": 180.8341,
        "meta_arg_of_pericenter": 137.6202,
        "meta_mean_anomaly": 98.9833,
        "meta_ephemeris_type": 0,
        "meta_classification_type": "U",
        "meta_norad_cat_id": 60133,
        "meta_element_set_no": 999,
        "meta_rev_at_epoch": 522,
        "meta_bstar": 0,
        "meta_mean_motion_dot": -2.26e-06,
        "meta_mean_motion_ddot": 0,
        "tle_line1": "1 60133U 24119A   25360.10491250 -.00000226  00000+0  00000+0 0  9997",
        "tle_line2": "2 60133   0.0424 180.8341 0001081 137.6202  98.9833  1.00270613  5220"
      },
      "geometry": {
        "type": "Point",
        "coordinates": [
          149.38552908618954,
          0.0028056436744067453
        ]
      }
    },
    {
      "type": "Feature",
      "properties": {
        "norad_id": 65815,
        "name": "FENGYUN 3H",
        "group": "weather",
        "lat": 22.488327670204065,
        "lon": 123.27274812832918,
        "alt_km": 824.8551991985605,
        "timestamp": "2025-12-26T08:37:54.213856+00:00",
        "meta_object_name": "FENGYUN 3H",
        "meta_object_id": "2025-219A",
        "meta_epoch": "2025-12-26T02:49:14.034720",
        "meta_mean_motion": 14.1990818,
        "meta_eccentricity": 8.65e-05,
        "meta_inclination": 98.6602,
        "meta_ra_of_asc_node": 299.4185,
        "meta_arg_of_pericenter": 109.6936,
        "meta_mean_anomaly": 250.4334,
        "meta_ephemeris_type": 0,
        "meta_classification_type": "U",
        "meta_norad_cat_id": 65815,
        "meta_element_set_no": 999,
        "meta_rev_at_epoch": 1282,
        "meta_bstar": 6.5147e-05,
        "meta_mean_motion_dot": 9.5e-07,
        "meta_mean_motion_ddot": 0,
        "tle_line1": "1 65815U 25219A   25360.11752355  .00000095  00000+0  65147-4 0  9999",
        "tle_line2": "2 65815  98.6602 299.4185 0000865 109.6936 250.4334 14.19908180 12824"
      },
      "geometry": {
        "type": "Point",
        "coordinates": [
          123.27274812832918,
          22.488327670204065
        ]
      }
    }
  ]
}